SAR-LUPE 2              
1 31797U 07030A   26196.58417192  .00020506  00000+0  32249-3 0  9993
2 31797  98.1063 304.6336 0004809 200.5710 159.5349 15.53652024 61340
SAPPHIRE                
1 39088U 13009C   26196.60549543  .00000042  00000+0  29509-4 0  9995
2 39088  98.4274  15.3883 0011614 158.7437 201.4233 14.35247675700657
PRAETORIAN SDA_602      
1 65565U 25203A   26196.65215313  .00000022  00000+0  94408-5 0  9992
2 65565  81.3044 344.4130 0007076 116.6565 243.5317 13.83887863 42633
PRAETORIAN SDA_603      
1 65566U 25203B   26196.53587015 -.00006213  00000+0 -56168-2 0  9999
2 65566  81.3061 344.4447 0010931 114.0363 246.1939 13.83906008 42627
PRAETORIAN SDA_604      
1 65567U 25203C   26196.50126910  .00000017  00000+0  43159-5 0  9993
2 65567  81.3066 344.9306 0006579 120.6838 239.4967 13.83050011 42591
PRAETORIAN SDA_605      
1 65568U 25203D   26196.53326032  .00000025  00000+0  11912-4 0  9994
2 65568  81.3031 344.5416 0009321 112.4495 247.7649 13.83200011 42617
PRAETORIAN SDA_606      
1 65569U 25203E   26196.51843400  .00000022  00000+0  91072-5 0  9999
2 65569  81.3067 344.7934 0007180 115.3420 244.8481 13.83200080 42602
PRAETORIAN SDA_607      
1 65570U 25203F   26196.50866132  .00000118  00000+0  96216-4 0  9997
2 65570  81.3051 344.4228 0010396 115.0269 245.1968 13.83760867 42621
PRAETORIAN SDA_608      
1 65571U 25203G   26196.49117260  .00000028  00000+0  14395-4 0  9995
2 65571  81.3019 344.6020 0007064 119.5093 240.6769 13.83819442 42601
PRAETORIAN SDA_609      
1 65572U 25203H   26196.48806724  .00000161  00000+0  13337-3 0  9997
2 65572  81.3061 344.5831 0007906 113.7132 246.4856 13.84211482 42616
PRAETORIAN SDA_610      
1 65573U 25203J   26196.54545069  .00000039  00000+0  24424-4 0  9991
2 65573  81.3022 344.5148 0007797 118.9440 241.2499 13.83528175 42617
PRAETORIAN SDA_611      
1 65574U 25203K   26196.48208716 -.00000018  00000+0 -27284-4 0  9996
2 65574  81.3026 344.7557 0006531 120.7496 239.4304 13.83311545 42597
PRAETORIAN SDA_612      
1 65575U 25203L   26196.65311292  .00000102  00000+0  79143-4 0  9993
2 65575  81.3042 344.1146 0010419 113.9282 246.2968 13.85041228 42650
PRAETORIAN SDA_613      
1 65576U 25203M   26196.49995003  .00000030  00000+0  16958-4 0  9999
2 65576  81.3012 344.7588 0006780 114.2375 245.9490 13.82767690 42591
PRAETORIAN SDA_614      
1 65577U 25203N   26196.50316079  .00000017  00000+0  40182-5 0  9994
2 65577  81.3027 344.3384 0008224 112.5479 247.6549 13.84778538 42633
PRAETORIAN SDA_615      
1 65578U 25203P   26196.55928560  .00000092  00000+0  71021-4 0  9992
2 65578  81.3037 344.2684 0010179 112.9094 247.3138 13.84438629 42631
PRAETORIAN SDA_616      
1 65579U 25203Q   26196.48214369  .00000107  00000+0  86549-4 0  9998
2 65579  81.3076 344.9208 0006585 121.1289 239.0514 13.83270348 42590
PRAETORIAN SDA_617      
1 65580U 25203R   26196.50616256  .00000030  00000+0  16780-4 0  9999
2 65580  81.3050 344.7268 0008488 112.9361 247.2692 13.83152134 42603
PRAETORIAN SDA_618      
1 65581U 25203S   26196.52668786 -.00000036  00000+0 -42633-4 0  9991
2 65581  81.3030 344.2293 0011081 116.4071 243.8224 13.84226943 42632
PRAETORIAN SDA_619      
1 65582U 25203T   26196.50189327  .00000120  00000+0  97567-4 0  9997
2 65582  81.3055 344.5820 0009391 113.7668 246.4474 13.83806566 43240
PRAETORIAN SDA_620      
1 65583U 25203U   26196.46478962  .00000160  00000+0  13511-3 0  9999
2 65583  81.3043 344.6482 0008479 109.0992 251.1083 13.83207756 42601
PRAETORIAN SDA_621      
1 65584U 25203V   26196.50373137  .00000016  00000+0  37014-5 0  9999
2 65584  81.3033 344.5125 0008495 108.2040 252.0041 13.83803736 42612
PRAETORIAN SDA_601      
1 65585U 25203W   26196.48732486 -.00000143  00000+0 -14128-3 0  9995
2 65585  81.3056 344.8560 0006484 123.0548 237.1232 13.83170047 42593
VICTUS HAZE PUMA        
1 69646U 26142A   26195.78469194  .00001975  00000+0  92002-4 0  9995
2 69646  97.4467  93.0928 0025040 267.3590  92.4779 15.20845903  3866
